[{"OBJECT_NAME":"YUNHAI-2 02B","OBJECT_ID":"2024-052B","EPOCH":"2026-03-09T23:36:35.688096","MEAN_MOTION":14.27934606,"ECCENTRICITY":0.00049008,"INCLINATION":50.0096,"RA_OF_ASC_NODE":82.8635,"ARG_OF_PERICENTER":204.1561,"MEAN_ANOMALY":155.9125,"EPHEMERIS_TYPE":0,"CLASSIFICATION_TYPE":"U","NORAD_CAT_ID":59281,"ELEMENT_SET_NO":999,"REV_AT_EPOCH":10243,"BSTAR":0.00011696599,"MEAN_MOTION_DOT":1.31e-6,"MEAN_MOTION_DDOT":0},{"OBJECT_NAME":"NOAA 16 DEB","OBJECT_ID":"2000-055AH","EPOCH":"2026-03-09T11:01:29.217216","MEAN_MOTION":14.46814242,"ECCENTRICITY":0.00843862,"INCLINATION":98.883,"RA_OF_ASC_NODE":256.7644,"ARG_OF_PERICENTER":149.5067,"MEAN_ANOMALY":211.1069,"EPHEMERIS_TYPE":0,"CLASSIFICATION_TYPE":"U","NORAD_CAT_ID":41074,"ELEMENT_SET_NO":999,"REV_AT_EPOCH":53913,"BSTAR":0.00095842634,"MEAN_MOTION_DOT":3.58e-5,"MEAN_MOTION_DDOT":0}]
